GNOMES-1                
1 46266U 20059B   26068.53916665  .00004080  00000+0  33422-3 0  9991
2 46266  97.8057 278.7760 0005451 357.8604   2.2595 14.99848479300657
STARLINK-36283          
1 67197U 25304F   26068.72924719 -.00000056  00000+0  31258-5 0  9992
2 67197  70.0020 174.2344 0002829 272.5628  87.5207 14.98314255 13891
